{
  "type": "FeatureCollection",
  "features": [
    {
      "type": "Feature",
      "properties": {
        "id": "falmer-house-accessible-entrance",
        "name": "Falmer House Accessible Entrance",
        "poi_type": "main_accessible_entrance",
        "description": "Step-free access and automatic doors.",
        "building_id": "falmer_house",
        "level": 0
      },
      "geometry": {
        "type": "Point",
        "coordinates": [
          -0.08857134264317779,
          50.864602129709795
        ]
      }
    },
    {
      "type": "Feature",
      "properties": {
        "id": "library-accessible-entrance",
        "name": "Library Accessible Entrance",
        "poi_type": "specific_accessible_entrance",
        "description": "Step-free entrance to the Library.",
        "building_id": "library",
        "level": 0
      },
      "geometry": {
        "type": "Point",
        "coordinates": [
          -0.08983510694011443,
          50.86566313247471
        ]
      }
    },
    {
      "type": "Feature",
      "properties": {
        "id": "library-lift",
        "name": "Library Lift (inside)",
        "poi_type": "lift",
        "description": "Lift inside the library.",
        "building_id": "library",
        "level": 0
      },
      "geometry": {
        "type": "Point",
        "coordinates": [
          -0.09021802642939747,
          50.86512421947211
        ]
      }
    },
    {
      "type": "Feature",
      "properties": {
        "id": "pevensey-1-entrance",
        "name": "Pevensey 1 Entrance",
        "poi_type": "main_accessible_entrance",
        "description": "Pevensey 1 entrance, accessed via automatic doors.",
        "building_id": "pev1",
        "level": 2
      },
      "geometry": {
        "type": "Point",
        "coordinates": [
          -0.08636437672132047,
          50.86491346763529
        ]
      }
    },
    {
      "type": "Feature",
      "properties": {
        "id": "pevensey-2-main-entrance",
        "name": "Pevensey 2 Main Entrance",
        "poi_type": "main_entrance",
        "description": "Up flights of stairs.",
        "building_id": "pev2",
        "level": 3
      },
      "geometry": {
        "type": "Point",
        "coordinates": [
          -0.08588549106417531,
          50.8653503068918
        ]
      }
    }
  ]
}
