{
  "type": "FeatureCollection",
  "features": [
    {
      "type": "Feature",
      "properties": {
        "id": "falmer-house-to-library",
        "name": "Falmer House → Library Square",
        "from_id": "falmer-house-accessible-entrance",
        "to_id": "library-accessible-entrance",
        "description": "Primary step-free outdoor route from Falmer House to the Library.",
        "step_free": true,
        "notes": "Gradients near Library Square should be verified."
      },
      "geometry": {
        "type": "LineString",
        "coordinates": [
          [
            -0.08847556297422443,
            50.86437740823763
          ],
          [
            -0.08865832510667815,
            50.86497408501711
          ],
          [
            -0.08856686145173853,
            50.86521089000004
          ],
          [
            -0.08859455644912373,
            50.86534413935621
          ]
        ]
      }
    }
  ]
}
